{
  "norad_id": 52832,
  "name": "STARLINK-4083",
  "history": [
    {
      "epoch": "2026-04-10T10:26:19.279104Z",
      "apogee_km": 540.5446113773223,
      "perigee_km": 539.0295859997104,
      "latitude_deg": -4.5848449237465694e-05,
      "longitude_deg": -103.64119632618575,
      "height_km": 540.699461874398,
      "semi_major_axis_km": 6917.924098688516,
      "eccentricity": 0.0001095,
      "inclination_deg": 53.2167,
      "raan_deg": 251.608,
      "arg_perigee_deg": 91.2381,
      "mean_anomaly_deg": 268.8736,
      "mean_motion_rev_day": 15.088257
    },
    {
      "epoch": "2026-04-11T19:49:24.889728Z",
      "apogee_km": 540.6760861104358,
      "perigee_km": 538.8926459822687,
      "latitude_deg": -4.1706081880021396e-05,
      "longitude_deg": 107.97005773139823,
      "height_km": 540.6238565028942,
      "semi_major_axis_km": 6917.921366046352,
      "eccentricity": 0.0001289,
      "inclination_deg": 53.2168,
      "raan_deg": 245.3637,
      "arg_perigee_deg": 86.383,
      "mean_anomaly_deg": 273.7309,
      "mean_motion_rev_day": 15.08826594
    },
    {
      "epoch": "2026-04-13T02:01:44.970528Z",
      "apogee_km": 540.6502788329944,
      "perigee_km": 538.8881497620878,
      "latitude_deg": 1.1412455756268357e-05,
      "longitude_deg": 7.996727486622216,
      "height_km": 540.6191881195705,
      "semi_major_axis_km": 6917.906214297541,
      "eccentricity": 0.00012736,
      "inclination_deg": 53.2171,
      "raan_deg": 239.7145,
      "arg_perigee_deg": 87.0191,
      "mean_anomaly_deg": 273.0947,
      "mean_motion_rev_day": 15.08831551
    },
    {
      "epoch": "2026-04-14T14:35:37.230720Z",
      "apogee_km": 540.6353671863499,
      "perigee_km": 538.883755776983,
      "latitude_deg": 1.738764766052143e-05,
      "longitude_deg": 171.1872312437036,
      "height_km": 540.5911589732632,
      "semi_major_axis_km": 6917.896561481666,
      "eccentricity": 0.0001266,
      "inclination_deg": 53.2165,
      "raan_deg": 232.8744,
      "arg_perigee_deg": 85.7999,
      "mean_anomaly_deg": 274.3138,
      "mean_motion_rev_day": 15.08834709
    },
    {
      "epoch": "2026-04-15T14:26:23.849952Z",
      "apogee_km": 540.5912196409172,
      "perigee_km": 538.8838882010086,
      "latitude_deg": -2.399276932621602e-05,
      "longitude_deg": 168.05292342241577,
      "height_km": 540.5864657612173,
      "semi_major_axis_km": 6917.874553920962,
      "eccentricity": 0.0001234,
      "inclination_deg": 53.2162,
      "raan_deg": 228.4137,
      "arg_perigee_deg": 86.8541,
      "mean_anomaly_deg": 273.2592,
      "mean_motion_rev_day": 15.08841909
    },
    {
      "epoch": "2026-04-16T19:03:20.977920Z",
      "apogee_km": 540.7236958034773,
      "perigee_km": 538.8945908431824,
      "latitude_deg": 2.7349817310680725e-05,
      "longitude_deg": 92.28481872091025,
      "height_km": 540.9380756580267,
      "semi_major_axis_km": 6917.94614332333,
      "eccentricity": 0.0001322,
      "inclination_deg": 53.217,
      "raan_deg": 223.0588,
      "arg_perigee_deg": 104.7711,
      "mean_anomaly_deg": 255.3428,
      "mean_motion_rev_day": 15.08818488
    },
    {
      "epoch": "2026-04-17T12:32:34.908000Z",
      "apogee_km": 540.6362820542436,
      "perigee_km": 538.8470419171072,
      "latitude_deg": 2.9662884941918994e-05,
      "longitude_deg": -174.0122944646927,
      "height_km": 540.7733194632864,
      "semi_major_axis_km": 6917.878661985675,
      "eccentricity": 0.00012932,
      "inclination_deg": 53.217,
      "raan_deg": 219.7879,
      "arg_perigee_deg": 98.7367,
      "mean_anomaly_deg": 261.3772,
      "mean_motion_rev_day": 15.08840565
    },
    {
      "epoch": "2026-04-18T13:58:45.217056Z",
      "apogee_km": 540.5305541774369,
      "perigee_km": 538.9712622429261,
      "latitude_deg": -3.4920203145446028e-06,
      "longitude_deg": 158.64429954124,
      "height_km": 540.6932612119376,
      "semi_major_axis_km": 6917.887908210181,
      "eccentricity": 0.0001127,
      "inclination_deg": 53.2163,
      "raan_deg": 215.0321,
      "arg_perigee_deg": 93.4151,
      "mean_anomaly_deg": 266.697,
      "mean_motion_rev_day": 15.0883754
    },
    {
      "epoch": "2026-04-19T13:49:32.934432Z",
      "apogee_km": 540.5601969349191,
      "perigee_km": 538.9787635135408,
      "latitude_deg": 2.9831887493362308e-05,
      "longitude_deg": 155.50585661471598,
      "height_km": 540.7334512400006,
      "semi_major_axis_km": 6917.90648022423,
      "eccentricity": 0.0001143,
      "inclination_deg": 53.2168,
      "raan_deg": 210.5718,
      "arg_perigee_deg": 94.9359,
      "mean_anomaly_deg": 265.1764,
      "mean_motion_rev_day": 15.08831464
    },
    {
      "epoch": "2026-04-19T23:21:51.651936Z",
      "apogee_km": 540.5111095007323,
      "perigee_km": 539.0117241978642,
      "latitude_deg": 6.271965735023369e-05,
      "longitude_deg": 10.251857352158279,
      "height_km": 540.6861216815109,
      "semi_major_axis_km": 6917.898416849298,
      "eccentricity": 0.00010837,
      "inclination_deg": 53.2169,
      "raan_deg": 208.7875,
      "arg_perigee_deg": 92.1928,
      "mean_anomaly_deg": 267.9189,
      "mean_motion_rev_day": 15.08834102
    },
    {
      "epoch": "2026-04-21T13:31:06.432096Z",
      "apogee_km": 540.472427841356,
      "perigee_km": 539.0030712445523,
      "latitude_deg": 1.769479505848134e-05,
      "longitude_deg": 149.23710271594894,
      "height_km": 540.658136047647,
      "semi_major_axis_km": 6917.874749542953,
      "eccentricity": 0.0001062,
      "inclination_deg": 53.2183,
      "raan_deg": 201.6513,
      "arg_perigee_deg": 91.886,
      "mean_anomaly_deg": 268.2254,
      "mean_motion_rev_day": 15.08841845
    },
    {
      "epoch": "2026-04-22T11:46:31.181952Z",
      "apogee_km": 540.5418936430997,
      "perigee_km": 538.9576975669061,
      "latitude_deg": 4.146871323607122e-06,
      "longitude_deg": 170.3072085324208,
      "height_km": 540.585494176779,
      "semi_major_axis_km": 6917.886795605003,
      "eccentricity": 0.0001145,
      "inclination_deg": 53.218,
      "raan_deg": 197.4886,
      "arg_perigee_deg": 85.6289,
      "mean_anomaly_deg": 274.4834,
      "mean_motion_rev_day": 15.08837904
    },
    {
      "epoch": "2026-04-23T11:37:17.924736Z",
      "apogee_km": 540.3622980189621,
      "perigee_km": 539.1281478303936,
      "latitude_deg": -7.553416638116931e-05,
      "longitude_deg": 167.17215213061812,
      "height_km": 540.5877912475797,
      "semi_major_axis_km": 6917.882222924678,
      "eccentricity": 8.92e-05,
      "inclination_deg": 53.2168,
      "raan_deg": 193.0277,
      "arg_perigee_deg": 85.0054,
      "mean_anomaly_deg": 275.1039,
      "mean_motion_rev_day": 15.088394
    },
    {
      "epoch": "2026-04-24T16:14:14.082432Z",
      "apogee_km": 540.442325078212,
      "perigee_km": 539.0435297568883,
      "latitude_deg": 5.029274871115901e-05,
      "longitude_deg": 91.41025285465376,
      "height_km": 540.5243521009601,
      "semi_major_axis_km": 6917.87992741755,
      "eccentricity": 0.0001011,
      "inclination_deg": 53.2166,
      "raan_deg": 187.6749,
      "arg_perigee_deg": 80.5622,
      "mean_anomaly_deg": 279.5485,
      "mean_motion_rev_day": 15.08840151
    },
    {
      "epoch": "2026-04-25T16:05:01.340160Z",
      "apogee_km": 540.457523297222,
      "perigee_km": 539.0324396090436,
      "latitude_deg": -1.7149743025344314e-05,
      "longitude_deg": 88.27315584530767,
      "height_km": 540.5135811089174,
      "semi_major_axis_km": 6917.8819814531325,
      "eccentricity": 0.000103,
      "inclination_deg": 53.2166,
      "raan_deg": 183.2141,
      "arg_perigee_deg": 79.6923,
      "mean_anomaly_deg": 280.4185,
      "mean_motion_rev_day": 15.08839479
    },
    {
      "epoch": "2026-04-26T20:41:58.195104Z",
      "apogee_km": 540.499517901626,
      "perigee_km": 539.0005501390942,
      "latitude_deg": -3.640378553182511e-05,
      "longitude_deg": 12.508437528118804,
      "height_km": 540.4884482617085,
      "semi_major_axis_km": 6917.88703402036,
      "eccentricity": 0.00010834,
      "inclination_deg": 53.2166,
      "raan_deg": 177.8615,
      "arg_perigee_deg": 77.8594,
      "mean_anomaly_deg": 282.2519,
      "mean_motion_rev_day": 15.08837826
    },
    {
      "epoch": "2026-04-27T20:32:45.337056Z",
      "apogee_km": 540.4968439207432,
      "perigee_km": 539.0039638189883,
      "latitude_deg": 4.665701943685119e-05,
      "longitude_deg": 9.372537255886497,
      "height_km": 540.4752128017523,
      "semi_major_axis_km": 6917.887403869866,
      "eccentricity": 0.0001079,
      "inclination_deg": 53.2163,
      "raan_deg": 173.4013,
      "arg_perigee_deg": 76.741,
      "mean_anomaly_deg": 283.3703,
      "mean_motion_rev_day": 15.08837705
    },
    {
      "epoch": "2026-04-28T10:51:13.810752Z",
      "apogee_km": 540.5473955661182,
      "perigee_km": 538.9687319125733,
      "latitude_deg": -1.526161372013787e-05,
      "longitude_deg": 151.49064629744424,
      "height_km": 540.5290191302896,
      "semi_major_axis_km": 6917.8950637393455,
      "eccentricity": 0.0001141,
      "inclination_deg": 53.2169,
      "raan_deg": 170.7257,
      "arg_perigee_deg": 80.8867,
      "mean_anomaly_deg": 279.2254,
      "mean_motion_rev_day": 15.08835199
    },
    {
      "epoch": "2026-04-29T20:14:19.696128Z",
      "apogee_km": 540.5208397996548,
      "perigee_km": 538.9698505778642,
      "latitude_deg": 7.054611635705978e-07,
      "longitude_deg": 3.100564449233402,
      "height_km": 540.4875969861298,
      "semi_major_axis_km": 6917.882345188759,
      "eccentricity": 0.0001121,
      "inclination_deg": 53.2168,
      "raan_deg": 164.4812,
      "arg_perigee_deg": 78.5647,
      "mean_anomaly_deg": 281.5471,
      "mean_motion_rev_day": 15.0883936
    }
  ]
}